NORAD_CAT_ID,OBJECT_NAME,OBJECT_TYPE,EPOCH,MEAN_MOTION,ECCENTRICITY,INCLINATION,RA_OF_ASC_NODE,ARG_OF_PERICENTER,MEAN_ANOMALY,BSTAR,MEAN_MOTION_DOT,MEAN_MOTION_DDOT,TLE_LINE0,TLE_LINE1,TLE_LINE2,SEMIMAJOR_AXIS,PERIOD,APOGEE,PERIGEE,DECAYED
56482.0,STARLINK-6220,PAYLOAD,2024-02-16 14:18:35,14.9833194,0.0002901,69.9994,220.7232,270.7079,89.3748,-2.3206e-05,-3.7e-06,0.0,0 STARLINK-6220,1 56482U 23064AL  24047.59624823 -.00000370  00000-0 -23206-4 0  9995,2 56482  69.9994 220.7232 0002901 270.7079  89.3748 14.98331940 43081,6950.187,96.107,574.068,570.036,0.0
56482.0,STARLINK-6220,PAYLOAD,2024-02-16 22:19:16,14.98332638,0.0002899,69.9995,219.8816,270.6471,89.4356,-1.1402e-05,-2.29e-06,0.0,0 STARLINK-6220,1 56482U 23064AL  24047.93004701 -.00000229  00000-0 -11402-4 0  9998,2 56482  69.9995 219.8816 0002899 270.6471  89.4356 14.98332638 43137,6950.185,96.107,574.065,570.035,0.0
56482.0,STARLINK-6220,PAYLOAD,2024-02-17 14:20:36,14.98327346,0.0002952,69.9995,218.198,271.3997,88.6824,-1.0257e-05,-2.15e-06,0.0,0 STARLINK-6220,1 56482U 23064AL  24048.59765028 -.00000215  00000-0 -10257-4 0  9999,2 56482  69.9995 218.1980 0002952 271.3997  88.6824 14.98327346 43234,6950.201,96.107,574.118,570.014,0.0
56482.0,STARLINK-6220,PAYLOAD,2024-02-17 19:09:01,14.98327545,0.0002975,69.9996,217.6932,270.926,89.1558,-9.0267e-06,-2.01e-06,0.0,0 STARLINK-6220,1 56482U 23064AL  24048.79793023 -.00000201  00000-0 -90267-5 0  9992,2 56482  69.9996 217.6932 0002975 270.9260  89.1558 14.98327545 43623,6950.2,96.107,574.133,569.998,0.0
56482.0,STARLINK-6220,PAYLOAD,2024-02-17 20:45:09,14.98327701,0.0002974,69.9996,217.5249,270.9605,89.1214,-7.2461e-06,-1.79e-06,0.0,0 STARLINK-6220,1 56482U 23064AL  24048.86469016 -.00000179  00000-0 -72461-5 0  9992,2 56482  69.9996 217.5249 0002974 270.9605  89.1214 14.98327701 43279,6950.2,96.107,574.132,569.998,0.0
56482.0,STARLINK-6220,PAYLOAD,2024-02-18 14:22:37,14.9833261,0.0003028,69.9995,215.6729,270.876,89.2052,5.1981e-05,5.27e-06,0.0,0 STARLINK-6220,1 56482U 23064AL  24049.59904503  .00000527  00000-0  51981-4 0  9996,2 56482  69.9995 215.6729 0003028 270.8760  89.2052 14.98332610 43380,6950.185,96.107,574.154,569.945,0.0
56482.0,STARLINK-6220,PAYLOAD,2024-02-18 19:11:01,14.98340706,0.0002984,69.9995,215.1679,270.779,89.3028,0.00011164,1.24e-05,0.0,0 STARLINK-6220,1 56482U 23064AL  24049.79931740  .00001240  00000-0  11164-3 0  9992,2 56482  69.9995 215.1679 0002984 270.7790  89.3028 14.98340706 43773,6950.16,96.106,574.099,569.951,0.0
56482.0,STARLINK-6220,PAYLOAD,2024-02-18 20:47:08,14.98342158,0.0002976,69.9995,214.9996,270.772,89.3098,0.00012595,1.411e-05,0.0,0 STARLINK-6220,1 56482U 23064AL  24049.86607565  .00001411  00000-0  12595-3 0  9994,2 56482  69.9995 214.9996 0002976 270.7720  89.3098 14.98342158 43428,6950.155,96.106,574.089,569.952,0.0
56482.0,STARLINK-6220,PAYLOAD,2024-02-19 09:36:14,14.98327226,0.000276,70.0006,213.6527,270.1391,89.9452,-1.9586e-05,-3.27e-06,0.0,0 STARLINK-6220,1 56482U 23064AL  24050.40016825 -.00000327  00000-0 -19586-4 0  9994,2 56482  70.0006 213.6527 0002760 270.1391  89.9452 14.98327226 43866,6950.201,96.107,573.985,570.148,0.0
56482.0,STARLINK-6220,PAYLOAD,2024-02-19 14:24:39,14.98323367,0.0002744,69.9998,213.148,270.8513,89.2332,-2.4341e-05,-3.83e-06,0.0,0 STARLINK-6220,1 56482U 23064AL  24050.60045145 -.00000383  00000-0 -24341-4 0  9990,2 56482  69.9998 213.1480 0002744 270.8513  89.2332 14.98323367 43537,6950.213,96.107,573.986,570.171,0.0
56482.0,STARLINK-6220,PAYLOAD,2024-02-19 20:49:11,14.98322977,0.000282,70.0,212.475,270.9234,89.1602,-5.8944e-05,-7.96e-06,0.0,0 STARLINK-6220,1 56482U 23064AL  24050.86749351 -.00000796  00000-0 -58944-4 0  9992,2 56482  70.0000 212.4750 0002820 270.9234  89.1602 14.98322977 43571,6950.215,96.107,574.04,570.12,0.0
56482.0,STARLINK-6220,PAYLOAD,2024-02-20 11:14:23,14.98332433,0.0002938,69.9993,210.9603,269.1218,90.9604,-1.8507e-05,-3.14e-06,0.0,0 STARLINK-6220,1 56482U 23064AL  24051.46832650 -.00000314  00000-0 -18507-4 0  9991,2 56482  69.9993 210.9603 0002938 269.1218  90.9604 14.98332433 44022,6950.185,96.107,574.092,570.008,0.0
56482.0,STARLINK-6220,PAYLOAD,2024-02-20 12:50:31,14.98333071,0.0002924,69.9993,210.7919,269.1722,90.9102,-1.439e-05,-2.65e-06,0.0,0 STARLINK-6220,1 56482U 23064AL  24051.53508589 -.00000265  00000-0 -14390-4 0  9991,2 56482  69.9993 210.7919 0002924 269.1722  90.9102 14.98333071 43677,6950.183,96.107,574.081,570.016,0.0
56482.0,STARLINK-6220,PAYLOAD,2024-02-20 20:51:11,14.98338355,0.0002816,69.9998,209.9505,269.6619,90.4217,-1.9919e-05,-3.31e-06,0.0,0 STARLINK-6220,1 56482U 23064AL  24051.86888173 -.00000331  00000-0 -19919-4 0  9993,2 56482  69.9998 209.9505 0002816 269.6619  90.4217 14.98338355 43721,6950.167,96.106,573.989,570.075,0.0
56482.0,STARLINK-6220,PAYLOAD,2024-02-21 11:16:24,14.98324509,0.0002768,69.9999,208.4354,270.4863,89.5979,5.3016e-05,5.4e-06,0.0,0 STARLINK-6220,1 56482U 23064AL  24052.46972771  .00000540  00000-0  53016-4 0  9994,2 56482  69.9999 208.4354 0002768 270.4863  89.5979 14.98324509 44175,6950.21,96.107,573.999,570.151,0.0
56482.0,STARLINK-6220,PAYLOAD,2024-02-21 14:28:40,14.98324588,0.000277,69.9999,208.0988,270.4474,89.6367,5.0513e-05,5.1e-06,0.0,0 STARLINK-6220,1 56482U 23064AL  24052.60324804  .00000510  00000-0  50513-4 0  9994,2 56482  69.9999 208.0988 0002770 270.4474  89.6367 14.98324588 43836,6950.21,96.107,574.0,570.149,0.0
56482.0,STARLINK-6220,PAYLOAD,2024-02-21 19:17:04,14.98325564,0.0002735,70.0,207.5942,269.0273,91.0573,5.7275e-05,5.9e-06,0.0,0 STARLINK-6220,1 56482U 23064AL  24052.80352768  .00000590  00000-0  57275-4 0  9996,2 56482  70.0000 207.5942 0002735 269.0273  91.0573 14.98325564 43862,6950.207,96.107,573.972,570.171,0.0
56482.0,STARLINK-6220,PAYLOAD,2024-02-22 11:18:25,14.98332058,0.0002723,69.9999,205.9111,267.0694,93.0154,-2.6763e-05,-4.12e-06,0.0,0 STARLINK-6220,1 56482U 23064AL  24053.47112667 -.00000412  00000-0 -26763-4 0  9995,2 56482  69.9999 205.9111 0002723 267.0694  93.0154 14.98332058 44323,6950.187,96.107,573.944,570.159,0.0
56482.0,STARLINK-6220,PAYLOAD,2024-02-22 14:30:41,14.98331161,0.0002745,69.9999,205.5745,266.9576,93.1269,-3.6296e-05,-5.26e-06,0.0,0 STARLINK-6220,1 56482U 23064AL  24053.60464729 -.00000526  00000-0 -36296-4 0  9997,2 56482  69.9999 205.5745 0002745 266.9576  93.1269 14.98331161 43986,6950.189,96.107,573.962,570.146,0.0
56482.0,STARLINK-6220,PAYLOAD,2024-02-22 19:19:05,14.98330971,0.0002816,69.9999,205.0695,267.6849,92.3987,-3.1065e-05,-4.64e-06,0.0,0 STARLINK-6220,1 56482U 23064AL  24053.80492711 -.00000464  00000-0 -31065-4 0  9991,2 56482  69.9999 205.0695 0002816 267.6849  92.3987 14.98330971 44016,6950.19,96.107,574.012,570.098,0.0
56482.0,STARLINK-6220,PAYLOAD,2024-02-23 11:20:26,14.98331073,0.0002878,69.9998,203.3865,267.9501,92.1328,-3.2598e-06,-1.32e-06,0.0,0 STARLINK-6220,1 56482U 23064AL  24054.47252572 -.00000132  00000-0 -32598-5 0  9999,2 56482  69.9998 203.3865 0002878 267.9501  92.1328 14.98331073 44472,6950.19,96.107,574.055,570.054,0.0
56482.0,STARLINK-6220,PAYLOAD,2024-02-23 14:32:42,14.98331104,0.0002771,70.0,203.0497,265.7651,94.3191,2.9912e-06,-5.7e-07,0.0,0 STARLINK-6220,1 56482U 23064AL  24054.60604537 -.00000057  00000-0  29912-5 0  9997,2 56482  70.0000 203.0497 0002771 265.7651  94.3191 14.98331104 44131,6950.189,96.107,573.98,570.129,0.0
56482.0,STARLINK-6220,PAYLOAD,2024-02-23 19:21:06,14.98332797,0.0002813,70.0001,202.5448,268.6641,91.4196,4.3924e-05,4.31e-06,0.0,0 STARLINK-6220,1 56482U 23064AL  24054.80632309  .00000431  00000-0  43924-4 0  9990,2 56482  70.0001 202.5448 0002813 268.6641  91.4196 14.98332797 44165,6950.184,96.107,574.004,570.094,0.0
56482.0,STARLINK-6220,PAYLOAD,2024-02-24 11:22:27,14.98325469,0.0002924,70.0004,200.8608,268.5956,91.4868,3.1332e-05,2.81e-06,0.0,0 STARLINK-6220,1 56482U 23064AL  24055.47392778  .00000281  00000-0  31332-4 0  9990,2 56482  70.0004 200.8608 0002924 268.5956  91.4868 14.98325469 44623,6950.207,96.107,574.104,570.04,0.0
56482.0,STARLINK-6220,PAYLOAD,2024-02-24 14:34:43,14.98325313,0.0002968,70.0004,200.5243,268.3652,91.7167,4.5829e-05,4.54e-06,0.0,0 STARLINK-6220,1 56482U 23064AL  24055.60744771  .00000454  00000-0  45829-4 0  9997,2 56482  70.0004 200.5243 0002968 268.3652  91.7167 14.98325313 44289,6950.207,96.107,574.135,570.01,0.0
56482.0,STARLINK-6220,PAYLOAD,2024-02-24 16:10:51,14.98330637,0.0002688,70.0002,200.3557,263.3911,96.6942,-3.827e-06,-1.39e-06,0.0,0 STARLINK-6220,1 56482U 23064AL  24055.67420572 -.00000139  00000-0 -38270-5 0  9999,2 56482  70.0002 200.3557 0002688 263.3911  96.6942 14.98330637 44296,6950.191,96.107,573.924,570.188,0.0
56482.0,STARLINK-6220,PAYLOAD,2024-02-25 03:23:47,14.98349687,0.0002796,70.0002,199.1774,265.7367,94.3473,-0.00036049,-4.394e-05,0.0,0 STARLINK-6220,1 56482U 23064AL  24056.14152079 -.00004394  00000-0 -36049-3 0  9993,2 56482  70.0002 199.1774 0002796 265.7367  94.3473 14.98349687 44720,6950.132,96.106,573.94,570.054,0.0
56482.0,STARLINK-6220,PAYLOAD,2024-02-25 11:24:27,14.98334717,0.0002907,70.0,198.3355,269.6405,90.4421,1.8981e-05,1.34e-06,0.0,0 STARLINK-6220,1 56482U 23064AL  24056.47532178  .00000134  00000-0  18981-4 0  9993,2 56482  70.0000 198.3355 0002907 269.6405  90.4421 14.98334717 44777,6950.178,96.107,574.064,570.023,0.0
56482.0,STARLINK-6220,PAYLOAD,2024-02-25 14:36:43,14.98332626,0.0002896,70.0,197.9989,269.3968,90.6859,5.7441e-05,5.92e-06,0.0,0 STARLINK-6220,1 56482U 23064AL  24056.60884154  .00000592  00000-0  57441-4 0  9994,2 56482  70.0000 197.9989 0002896 269.3968  90.6859 14.98332626 44430,6950.185,96.107,574.063,570.037,0.0
56482.0,STARLINK-6220,PAYLOAD,2024-02-25 19:25:07,14.98337721,0.0002902,70.0,197.4945,269.1832,90.8994,0.00011637,1.296e-05,0.0,0 STARLINK-6220,1 56482U 23064AL  24056.80911591  .00001296  00000-0  11637-3 0  9990,2 56482  70.0000 197.4945 0002902 269.1832  90.8994 14.98337721 44469,6950.169,96.107,574.051,570.017,0.0
